GSAT0221 (GALILEO 25)   
1 43564U 18060A   22277.57289016 -.00000094  00000+0  00000+0 0  9997
2 43564  57.2105  18.2373 0003488 250.0565 109.9197  1.70476016 26123
GSAT0222 (GALILEO 26)   
1 43565U 18060B   22275.44643625 -.00000084  00000+0  00000+0 0  9991
2 43565  57.2120  18.2954 0002892 255.9579 104.0286  1.70475939 26132
GSAT0219 (GALILEO 23)   
1 43566U 18060C   22279.77304929 -.00000103  00000+0  00000+0 0  9995
2 43566  57.2135  18.1805 0002598 253.4788 106.5036  1.70476045 26185
GSAT0220 (GALILEO 24)   
1 43567U 18060D   22278.82008489 -.00000100  00000+0  00000+0 0  9990
2 43567  57.2130  18.2064 0002864 248.8534 111.1275  1.70475655 26152
BEIDOU-3 M13            
1 43622U 18072A   22281.80958885  .00000047  00000+0  00000+0 0  9990
2 43622  55.5455 107.5474 0004322 289.8394  87.5310  1.86231792 27563
BEIDOU-3 M14            
1 43623U 18072B   22280.99077914  .00000054  00000+0  00000+0 0  9993
2 43623  55.5472 107.5662 0002838 339.6556 298.9816  1.86231799 27540
GPS BIII-1              
1 43873U 18109A   22282.08148113  .00000051  00000+0  00000+0 0  9990
2 43873  55.1083 145.4094 0020888 188.1972 339.4748  2.00554910 28057
METEOR-M2 2             
1 44387U 19038A   22282.14346785  .00000070  00000+0  49955-4 0  9993
2 44387  98.7365 242.0785 0000945   2.8707 357.2481 14.23723341169585
GPS BIII-2              
1 44506U 19056A   22282.43294921 -.00000106  00000+0  00000+0 0  9996
2 44506  55.7275  24.5217 0028939 181.8848 139.7147  2.00558484 23050
BEIDOU-3 M23            
1 44542U 19061A   22282.02930999 -.00000032  00000+0  00000+0 0  9997
2 44542  54.5566 228.2561 0008890 336.8681  23.0566  1.86231473 20704
BEIDOU-3 M24            
1 44543U 19061B   22280.83035637 -.00000037  00000+0  00000+0 0  9995
2 44543  54.5556 228.2657 0006460 319.3979 228.1371  1.86231864 20679
BEIDOU-3 M21            
1 44793U 19078A   22282.36467553 -.00000101  00000+0  10000-3 0  9993
2 44793  54.9281 346.6960 0004949  12.2463 316.9220  1.86232370 19562
BEIDOU-3 M22            
1 44794U 19078B   22281.47346000 -.00000098  00000+0  00000+0 0  9998
2 44794  54.9025 346.7167 0002850   1.7820   1.7252  1.86232810 19550
ELEKTRO-L 3             
1 44903U 19095A   22282.55716139 -.00000110  00000+0  00000+0 0  9998
2 44903   0.0718  61.2158 0001623 130.6414 102.9315  1.00271293 10201
GPS BIII-3              
1 45854U 20041A   22282.56379384 -.00000011  00000+0  00000+0 0  9995
2 45854  55.6124  81.7833 0027310 178.3779 175.6011  2.00569245 17020
GPS BIII-4              
1 46826U 20078A   22282.33236066 -.00000029  00000+0  00000+0 0  9998
2 46826  54.4978 265.4717 0023739 191.7219 332.0486  2.00565125 14491
GSAT0223 (GALILEO 27)   
1 49809U 21116A   22281.63207334 -.00000107  00000+0  00000+0 0  9991
2 49809  57.2063  18.0278 0003522 192.3624 183.4738  1.70476045  5216
GSAT0224 (GALILEO 28)   
1 49810U 21116B   22276.75500344 -.00000090  00000+0  00000+0 0  9998
2 49810  57.2058  18.1583 0002884 174.0534 201.0949  1.70475842  5157
